[{"OBJECT_NAME":"STARLINK-1623","OBJECT_ID":"2020-057N","EPOCH":"2026-03-09T21:27:36.782208","MEAN_MOTION":15.52539688,"ECCENTRICITY":0.00071266,"INCLINATION":53.0504,"RA_OF_ASC_NODE":254.9883,"ARG_OF_PERICENTER":167.5624,"MEAN_ANOMALY":192.5562,"EPHEMERIS_TYPE":0,"CLASSIFICATION_TYPE":"U","NORAD_CAT_ID":46129,"ELEMENT_SET_NO":999,"REV_AT_EPOCH":30695,"BSTAR":0.0020334212,"MEAN_MOTION_DOT":0.00128626,"MEAN_MOTION_DDOT":0},{"OBJECT_NAME":"POLYTECH UNIVERSE-5","OBJECT_ID":"2024-199L","EPOCH":"2026-03-09T21:29:23.803296","MEAN_MOTION":15.52287921,"ECCENTRICITY":0.00049026,"INCLINATION":97.3133,"RA_OF_ASC_NODE":304.2615,"ARG_OF_PERICENTER":279.4444,"MEAN_ANOMALY":80.6254,"EPHEMERIS_TYPE":0,"CLASSIFICATION_TYPE":"U","NORAD_CAT_ID":61745,"ELEMENT_SET_NO":999,"REV_AT_EPOCH":12223,"BSTAR":0.00078869438,"MEAN_MOTION_DOT":0.00048079,"MEAN_MOTION_DDOT":0}]
